BEIDOU 3 (C01)          
1 36287U 10001A   22065.84587150 -.00000289  00000+0  00000+0 0  9999
2 36287   1.9063  47.8936 0002664  20.1436 181.3555  1.00268378 44481
BEIDOU 5 (C06)          
1 36828U 10036A   22065.95756039 -.00000135  00000+0  00000+0 0  9994
2 36828  54.1921 177.1677 0027625 182.2332 258.6459  1.00275915 42555
BEIDOU 6 (C04)          
1 37210U 10057A   22065.84979633 -.00000120  00000+0  00000+0 0  9992
2 37210   0.9844  54.5601 0003767 149.3342  66.5946  1.00270891 41605
BEIDOU 7 (C07)          
1 37256U 10068A   22065.78839855 -.00000184  00000+0  00000+0 0  9998
2 37256  50.3923 290.8763 0017792 184.4904  81.3539  1.00282290 41118
BEIDOU 8 (C08)          
1 37384U 11013A   22065.63822067 -.00000167  00000+0  00000+0 0  9993
2 37384  60.1486  55.2728 0019932 196.1259 251.2320  1.00282922 39999
BEIDOU 9 (C09)          
1 37763U 11038A   22066.04183586 -.00000074  00000+0  00000+0 0  9990
2 37763  54.4764 179.6464 0090016 225.7712 227.2667  1.00256155 38971
BEIDOU 10 (C10)         
1 37948U 11073A   22065.84879214 -.00000137  00000+0  00000+0 0  9991
2 37948  50.5070 290.5058 0077032 218.2202  57.3296  1.00275928 37720
BEIDOU 11 (C05)         
1 38091U 12008A   22066.47544747  .00000053  00000+0  00000+0 0  9996
2 38091   1.3408  64.3069 0013633 315.5240  14.9616  1.00273687 36801
BEIDOU 12 (C11)         
1 38250U 12018A   22065.29289979 -.00000112  00000+0  00000+0 0  9993
2 38250  56.7197 356.9672 0023245 257.5595 268.4183  1.86234395 67160
BEIDOU 13 (C12)         
1 38251U 12018B   22065.38054712 -.00000112  00000+0  00000+0 0  9999
2 38251  56.6384 356.2952 0014130 264.0186   4.9818  1.86234171 67164
BEIDOU 15 (C14)         
1 38775U 12050B   22065.98375505 -.00000017  00000+0  00000+0 0  9992
2 38775  55.3399 115.1342 0014001 318.5165 191.5888  1.86231283 64552
BEIDOU 16 (C02)         
1 38953U 12059A   22065.83458663 -.00000183  00000+0  00000+0 0  9994
2 38953   1.7352  84.6135 0012874 285.1018 179.2208  1.00275615 34375
BEIDOU 17 (C31)         
1 40549U 15019A   22066.20607529 -.00000166  00000+0  00000+0 0  9997
2 40549  52.0586 313.9437 0035397 189.6148 190.7406  1.00263938 25415
BEIDOU 18 (C57)         
1 40748U 15037A   22065.51360669 -.00000113  00000+0  00000+0 0  9994
2 40748  55.8948 355.2189 0005365 354.7527 273.0442  1.86233280 44990
BEIDOU 19 (C58)         
1 40749U 15037B   22065.31480160 -.00000113  00000+0  00000+0 0  9992
2 40749  55.8962 355.2157 0006703 328.0614 301.3794  1.86231883 44981
BEIDOU 20 (C18)         
1 40938U 15053A   22065.04756964 -.00000112  00000+0  00000+0 0  9997
2 40938  51.6585 277.0565 0043584 192.5988 167.3107  1.00269916 23660
BEIDOU IGSO-6 (C13)     
1 41434U 16021A   22066.43510748 -.00000131  00000+0  00000+0 0  9998
2 41434  57.9510  53.8868 0043445 219.7186 142.2243  1.00261694 21816
BEIDOU-2 G7 (C03)       
1 41586U 16037A   22065.88034775 -.00000361  00000+0  00000+0 0  9997
2 41586   1.7496  68.1267 0008857 359.5754 164.2989  1.00268608 21114
BEIDOU-3 M1 (C19)       
1 43001U 17069A   22065.98036715 -.00000017  00000+0  00000+0 0  9992
2 43001  55.4930 115.1206 0010926 285.8574  18.1579  1.86231610 29481
BEIDOU-3 M2 (C20)       
1 43002U 17069B   22065.74465343 -.00000015  00000+0  00000+0 0  9998
2 43002  55.4925 115.1654 0008980 305.1276 244.0035  1.86231347 29478
BEIDOU-3 M3 (C27)       
1 43107U 18003A   22066.12227810 -.00000115  00000+0  00000+0 0  9992
2 43107  55.3427 356.1626 0004887  37.4266 210.9045  1.86232373 28249
BEIDOU-3 M4 (C28)       
1 43108U 18003B   22066.49831003 -.00000115  00000+0  00000+0 0  9998
2 43108  55.3363 356.1392 0003339 272.1962 272.7066  1.86230834 28251
BEIDOU-3 M5 (C21)       
1 43207U 18018A   22065.05776505 -.00000009  00000+0  00000+0 0  9992
2 43207  55.4516 115.2695 0006127 321.4368  38.5980  1.86231387 27614
BEIDOU-3 M6 (C22)       
1 43208U 18018B   22066.19832332 -.00000018  00000+0  00000+0 0  9990
2 43208  55.4523 115.2357 0009176 294.3023  65.6883  1.86231565 27634
BEIDOU-3 M7 (C29)       
1 43245U 18029A   22065.91909307 -.00000115  00000+0  00000+0 0  9997
2 43245  55.2615 353.9446 0001434 336.8404  45.6197  1.86232442 26785
BEIDOU-3 M8 (C30)       
1 43246U 18029B   22066.10646929 -.00000115  00000+0  10000-3 0  9993
2 43246  55.2588 353.9689 0005257 349.8520 204.6876  1.86232694 26773
BEIDOU IGSO-7 (C16)     
1 43539U 18057A   22065.81683275 -.00000136  00000+0  00000+0 0  9999
2 43539  55.0745 176.6148 0045818 223.8489 168.3611  1.00288891 13486
BEIDOU-3 M9 (C23)       
1 43581U 18062A   22066.38505821  .00000040  00000+0  00000+0 0  9998
2 43581  54.3089 235.5783 0001940 323.9932 268.0558  1.86231804 24520
BEIDOU-3 M10 (C24)      
1 43582U 18062B   22065.70858314  .00000032  00000+0  00000+0 0  9993
2 43582  54.3088 235.5909 0006580  24.4718 205.7253  1.86232070 24515
BEIDOU-3 M11 (C25)      
1 43602U 18067A   22065.85078537  .00000034  00000+0  00000+0 0  9990
2 43602  54.3897 234.1921 0007758  15.4152 351.7004  1.86231579 24019
BEIDOU-3 M12 (C26)      
1 43603U 18067B   22066.52440773  .00000042  00000+0  00000+0 0  9990
2 43603  54.3864 234.1357 0004733  11.7209 357.4245  1.86231524 24042
BEIDOU-3 M13 (C32)      
1 43622U 18072A   22065.39013700 -.00000012  00000+0  00000+0 0  9995
2 43622  55.4183 114.8179 0007658 280.0983  78.1552  1.86231394 23529
BEIDOU-3 M14 (C33)      
1 43623U 18072B   22066.25213840 -.00000019  00000+0  00000+0 0  9996
2 43623  55.4202 114.7807 0005371 300.3849   6.0354  1.86231422 23540
BEIDOU-3 M15 (C34)      
1 43647U 18078A   22065.78706779 -.00000115  00000+0  10000-3 0  9995
2 43647  55.1559 354.1165 0007648 358.3678 251.6618  1.86232473 23040
BEIDOU-3 M16 (C35)      
1 43648U 18078B   22065.92507539 -.00000115  00000+0  00000+0 0  9990
2 43648  55.1531 354.1187 0005480   4.0260 246.5201  1.86232138 23060
BEIDOU-3 G1 (C59)       
1 43683U 18085A   22065.85743720 -.00000287  00000+0  00000+0 0  9993
2 43683   0.8387 184.5109 0001469 348.3718  80.3321  1.00268553 12385
BEIDOU-3 M17 (C36)      
1 43706U 18093A   22065.70335053  .00000032  00000+0  00000+0 0  9995
2 43706  54.3911 235.4785 0007191 280.9743  78.9057  1.86231994 22407
BEIDOU-3 M18 (C37)      
1 43707U 18093B   22065.30118691  .00000028  00000+0  00000+0 0  9994
2 43707  54.3912 235.4837 0006713 319.5180 221.8475  1.86232047 22403
BEIDOU-3 IGSO-1 (C38)   
1 44204U 19023A   22066.05706196 -.00000200  00000+0  00000+0 0  9990
2 44204  56.4123  54.0669 0020647 205.6010  43.9811  1.00288926 10687
BEIDOU-2 G8             
1 44231U 19027A   22065.91839744 -.00000255  00000+0  00000+0 0  9994
2 44231   0.6224  70.3185 0005021 143.6229  65.7693  1.00274162 10391
BEIDOU-3 IGSO-2 (C39)   
1 44337U 19035A   22065.76001220 -.00000143  00000+0  00000+0 0  9999
2 44337  55.1135 172.6400 0022558 189.9475 194.0193  1.00284539 10020
BEIDOU-3 M23 (C45)      
1 44542U 19061A   22065.63878875  .00000032  00000+0  00000+0 0  9996
2 44542  54.6174 235.6027 0008077 353.2359   6.7141  1.86231352 16675
BEIDOU-3 M24 (C46)      
1 44543U 19061B   22066.11626771  .00000038  00000+0  00000+0 0  9993
2 44543  54.6149 235.5569 0005248 352.5890 238.6464  1.86231441 16670
BEIDOU-3 IGSO-3         
1 44709U 19073A   22066.43546392 -.00000165  00000+0  00000+0 0  9997
2 44709  57.4246 297.4397 0020112 173.7743 329.4635  1.00286634  8788
BEIDOU-3 M21            
1 44793U 19078A   22065.14599035 -.00000114  00000+0  10000-3 0  9993
2 44793  55.0052 354.1730 0007505   2.2290 132.0555  1.86232099 15525
BEIDOU-3 M22            
1 44794U 19078B   22065.10003135 -.00000114  00000+0  00000+0 0  9996
2 44794  54.9794 354.1683 0005493 358.1257  16.8143  1.86232677 15528
BEIDOU-3 M19            
1 44864U 19090A   22065.77922997 -.00000015  00000+0  00000+0 0  9997
2 44864  55.3536 115.0202 0017924 267.7933  37.0340  1.86231777 15113
BEIDOU-3 M20            
1 44865U 19090B   22065.80033412 -.00000016  00000+0  00000+0 0  9998
2 44865  55.3556 115.0513 0016091 280.8032 128.0565  1.86231685 15096
BEIDOU-3 G2             
1 45344U 20017A   22065.87688174 -.00000149  00000+0  00000+0 0  9997
2 45344   2.1428 347.1150 0002204  67.9663 145.1680  1.00273155  7584
BEIDOU-3 G3             
1 45807U 20040A   22065.97410438 -.00000362  00000+0  00000+0 0  9991
2 45807   1.6767 300.9349 0007916 348.4265 336.4822  1.00268940  6404
